ONEWEB-0555             
1 56057U 23043M   25256.80631207 -.00000081  00000+0 -24550-3 0  9991
2 56057  87.8981 283.8531 0002504  97.0398 263.1018 13.16595676122592
ONEWEB-0557             
1 56058U 23043N   25256.82057341  .00000072  00000+0  15543-3 0  9995
2 56058  87.8971 283.8684 0003038  77.8100 282.3371 13.16593974122595
ONEWEB-0558             
1 56059U 23043P   25256.84797936 -.00000040  00000+0 -12743-3 0  9995
2 56059  87.9206 299.1332 0001585 104.0957 256.0353 13.21823814121734
ONEWEB-0559             
1 56060U 23043Q   25256.83694488  .00000061  00000+0  11623-3 0  9991
2 56060  87.9209 299.1279 0001580  90.7348 269.3967 13.21826337121741
ONEWEB-0566             
1 56061U 23043R   25256.83063435 -.00000070  00000+0 -20074-3 0  9996
2 56061  87.9207 299.1267 0001611  97.7982 262.3335 13.21825828121727
ONEWEB-0568             
1 56062U 23043S   25256.83799302  .00000118  00000+0  27559-3 0  9992
2 56062  87.8985 283.8446 0002200  96.0308 264.1074 13.16594614122617
ONEWEB-0574             
1 56063U 23043T   25256.82433844 -.00000027  00000+0 -96071-4 0  9995
2 56063  87.9207 299.1164 0002034  89.9728 270.1639 13.21825639121764
ONEWEB-0575             
1 56064U 23043U   25256.83165056  .00000109  00000+0  25129-3 0  9998
2 56064  87.8979 283.8500 0002302  86.6362 273.5033 13.16595029122600
ONEWEB-0576             
1 56065U 23043V   25256.58466630 -.00000031  00000+0 -11533-3 0  9993
2 56065  87.8992 283.8941 0002126  93.8514 266.2860 13.16594244122568
ONEWEB-0577             
1 56066U 23043W   25256.81899057  .00000014  00000+0  33881-5 0  9994
2 56066  87.8987 283.8484 0002425  81.9093 278.2313 13.16593839122629
ONEWEB-0578             
1 56067U 23043X   25256.88741352 -.00000031  00000+0 -10587-3 0  9993
2 56067  87.9204 299.1137 0002161  97.9768 262.1611 13.21825536121733
ONEWEB-0579             
1 56068U 23043Y   25256.65086204  .00000017  00000+0  89535-5 0  9990
2 56068  87.9207 299.1474 0001646  91.1077 269.0245 13.21825021121713
ONEWEB-0581             
1 56069U 23043Z   25256.82531628  .00000118  00000+0  27428-3 0  9998
2 56069  87.8971 283.8667 0002056  80.4448 279.6916 13.16595790122594
ONEWEB-0609             
1 56070U 23043AA  25256.94355503 -.00000020  00000+0 -87757-4 0  9995
2 56070  87.9036 314.3395 0001851  99.1657 260.9683 13.15550182120113
ONEWEB-0613             
1 56071U 23043AB  25256.86272435 -.00000016  00000+0 -77404-4 0  9992
2 56071  87.9035 314.3695 0001661  93.3466 266.7854 13.15549885120100
ONEWEB-0630             
1 56072U 23043AC  25256.85797694  .00000022  00000+0  24448-4 0  9996
2 56072  87.9032 314.3436 0001579  97.6299 262.5010 13.15549278120092
ONEWEB-0632             
1 56073U 23043AD  25256.85321433  .00000043  00000+0  79617-4 0  9992
2 56073  87.9029 314.3647 0001897  90.6696 269.4652 13.15549447120096
ONEWEB-0633             
1 56074U 23043AE  25256.92293920  .00000058  00000+0  12032-3 0  9993
2 56074  87.9027 314.3145 0001531 105.4330 254.6970 13.15549286120082
ONEWEB-0634             
1 56075U 23043AF  25256.90867521  .00000103  00000+0  23997-3 0  9999
2 56075  87.9039 314.3604 0001973 107.5489 252.5857 13.15549900120077
ONEWEB-0635             
1 56076U 23043AG  25256.90393264  .00000043  00000+0  79391-4 0  9991
2 56076  87.9016 314.3242 0002010  89.2289 270.9071 13.15548907120100
ONEWEB-0636             
1 56077U 23043AH  25256.89600443 -.00000114  00000+0 -33648-3 0  9995
2 56077  87.9023 314.3423 0001982  91.2631 268.8726 13.15549108120085
ONEWEB-0637             
1 56078U 23043AJ  25256.66150999 -.00000118  00000+0 -34742-3 0  9997
2 56078  87.9028 314.4018 0002278  95.9136 264.2254 13.15548664120073
ONEWEB-0647             
1 56079U 23043AK  25256.88490781 -.00000091  00000+0 -27524-3 0  9998
2 56079  87.9029 314.3706 0001797  92.5395 267.5941 13.15549057120091
ONEWEB-0651             
1 56080U 23043AL  25256.88016642 -.00000126  00000+0 -36757-3 0  9997
2 56080  87.9038 314.3627 0002126  91.9342 268.2032 13.15548087121291
ONEWEB-0718             
1 56081U 23043AM  25256.87541228 -.00000197  00000+0 -55824-3 0  9994
2 56081  87.9032 314.3448 0002152 112.6278 247.5080 13.15548896120105
ONEWEB-0561             
1 56710U 23068A   25256.91275480  .00000040  00000+0  65363-4 0  9994
2 56710  87.9267 329.5351 0001864  83.5739 276.5606 13.20770724113035
ONEWEB-0668             
1 56711U 23068B   25256.82769525 -.00000014  00000+0 -69626-4 0  9992
2 56711  87.8990 283.8395 0002279 103.8515 256.2869 13.16592834115416
ONEWEB-0676             
1 56712U 23068C   25256.88388695 -.00000015  00000+0 -73160-4 0  9993
2 56712  87.8981 283.8474 0001951  82.9746 277.1607 13.16594373115348
ONEWEB-0677             
1 56713U 23068D   25256.90170700 -.00000018  00000+0 -75104-4 0  9996
2 56713  87.9272 329.5139 0002134  93.9306 266.2071 13.20771341113335
ONEWEB-0678             
1 56714U 23068E   25256.69160037  .00000143  00000+0  34489-3 0  9992
2 56714  87.9037 314.3544 0001548  92.9838 267.1470 13.15549457112937
ONEWEB-0679             
1 56715U 23068F   25256.62504271 -.00000068  00000+0 -21171-3 0  9990
2 56715  87.8982 283.8915 0002422  91.1322 269.0087 13.16594939115337
ONEWEB-0680             
1 56716U 23068G   25256.88109634 -.00000011  00000+0 -58232-4 0  9990
2 56716  87.9202 299.1008 0002513 103.8386 256.3027 13.21825564114596
ONEWEB-0681             
1 56717U 23068H   25256.85902423  .00000069  00000+0  13471-3 0  9991
2 56717  87.9206 299.1223 0002537  71.2813 288.8596 13.21827125114584
ONEWEB-0682             
1 56718U 23068J   25256.86986021 -.00000097  00000+0 -29053-3 0  9995
2 56718  87.9027 314.3391 0002415 102.5815 257.5586 13.15548484113129
ONEWEB-0683             
1 56719U 23068K   25256.89125311 -.00000127  00000+0 -37234-3 0  9990
2 56719  87.9030 314.3132 0002144 102.5355 257.6015 13.15549030113097
ONEWEB-0684             
1 56720U 23068L   25256.89916435  .00000034  00000+0  56968-4 0  9998
2 56720  87.9019 314.3105 0000688 137.7000 222.4184 13.15549881112926
ONEWEB-0686             
1 56721U 23068M   25256.84270699  .00000146  00000+0  34833-3 0  9999
2 56721  87.8972 283.8779 0001934 102.6296 257.5051 13.16597091115353
ONEWEB-0694             
1 56722U 23068N   25256.80947334 -.00000089  00000+0 -26650-3 0  9999
2 56722  87.8988 283.8140 0002296  99.7951 260.3439 13.16592495115400
ONEWEB-0696             
1 56723U 23068P   25256.85638337  .00000049  00000+0  95957-4 0  9996
2 56723  87.9030 314.3729 0001595  94.3944 265.7369 13.15549747113036
ONEWEB-0703             
1 56724U 23068Q   25256.86588838 -.00000016  00000+0 -76452-4 0  9993
2 56724  87.9024 314.3552 0001416  60.9662 299.1610 13.15550008112921
ONEWEB-0721             
1 56725U 23068R   25256.83024170 -.00000070  00000+0 -20257-3 0  9996
2 56725  86.6878 173.6178 0001853  73.8153 286.3184 13.22444322121415
ONEWEB-0015             
1 61594U 24188A   25256.88626488  .00000364  00000+0  99014-3 0  9996
2 61594  87.8781  76.1472 0002287  81.5489 278.5898 13.11415584 48245
ONEWEB-0687             
1 61595U 24188B   25256.89904454  .00000015  00000+0  44160-5 0  9997
2 61595  87.9036  60.8668 0002333  98.2343 261.9053 13.17650590 49517
ONEWEB-0688             
1 61596U 24188C   25256.92773502 -.00002792  00000+0 -72255-2 0  9999
2 61596  87.9036  60.8610 0002425  94.2214 265.9194 13.17661189 49516
ONEWEB-0689             
1 61597U 24188D   25256.92015647 -.00000552  00000+0 -15930-2 0  9998
2 61597  87.8744  76.0942 0001883  98.3710 261.7632 13.11418030 48241
ONEWEB-0690             
1 61598U 24188E   25256.93033779 -.00000052  00000+0 -18158-3 0  9997
2 61598  87.8792  76.0736 0001242  67.1659 292.9600 13.11419121 48424
ONEWEB-0691             
1 61599U 24188F   25256.92524547 -.00000245  00000+0 -72673-3 0  9991
2 61599  87.8712  76.0303 0001999  81.4487 278.6868 13.11420231 48278
ONEWEB-0692             
1 61600U 24188G   25256.94562802  .00000474  00000+0  13011-2 0  9994
2 61600  87.8771  76.1347 0001518 123.5822 236.5451 13.11418854 48261
ONEWEB-0693             
1 61601U 24188H   25256.93955465  .00000021  00000+0  20868-4 0  9993
2 61601  87.9037  60.8769 0001549  62.7358 297.3931 13.17647813 49509
ONEWEB-0695             
1 61602U 24188J   25256.92185078 -.00000350  00000+0 -10228-2 0  9992
2 61602  87.8773  76.1264 0001829 107.8749 252.2579 13.11417801 48257
ONEWEB-0697             
1 61603U 24188K   25256.87778939  .00000569  00000+0  15687-2 0  9995
2 61603  87.8770  76.1263 0001371 119.5495 240.5769 13.11416431 48231
ONEWEB-0698             
1 61604U 24188L   25256.93203424  .00000028  00000+0  41991-4 0  9994
2 61604  87.8773  76.1298 0000640 106.6456 253.4743 13.11419728 48265
ONEWEB-0699             
1 61605U 24188M   25256.80135723 -.00000682  00000+0 -19905-2 0  9993
2 61605  87.8746  91.3711 0001275 104.4322 255.6947 13.10372909 47119
ONEWEB-0700             
1 61606U 24188N   25256.80301588 -.00000639  00000+0 -18680-2 0  9999
2 61606  87.8732  91.2558 0001863 108.0368 252.0963 13.10373525 47109
ONEWEB-0701             
1 61607U 24188P   25256.81962021 -.00000067  00000+0 -22685-3 0  9992
2 61607  87.8742  91.3723 0001255 116.0817 244.0439 13.10375899 47115
ONEWEB-0702             
1 61608U 24188Q   25256.90151240 -.00000315  00000+0 -92341-3 0  9998
2 61608  87.8708  76.0637 0001649 123.8525 236.2761 13.11413454 48271
ONEWEB-0704             
1 61609U 24188R   25256.80799611 -.00000537  00000+0 -15744-2 0  9995
2 61609  87.8767  91.3259 0001699 120.6482 239.4813 13.10374900 47092
ONEWEB-0705             
1 61610U 24188S   25256.58390831 -.00000189  00000+0 -57772-3 0  9994
2 61610  87.8747  91.4036 0002611 106.5468 253.5947 13.10376891 39231
ONEWEB-0706             
1 61611U 24188T   25256.56896433 -.00000621  00000+0 -18151-2 0  9990
2 61611  87.8739  91.4341 0001839 108.3047 251.8281 13.10374337 47151
